GALAXY 3C (G-3C)        
1 27445U 02030A   26158.61176500 -.00000138  00000+0  00000+0 0  9996
2 27445   3.7053  78.1045 0001854  30.6428 272.6531  1.00271611 46395
INTELSAT 906 (IS-906)   
1 27513U 02041A   26158.78610617  .00000028  00000+0  00000+0 0  9991
2 27513   5.7800  73.0355 0004684 357.5851 172.6949  1.00271075 86936
NIMIQ 2                 
1 27632U 02062A   26158.62440133 -.00000057  00000+0  00000+0 0  9996
2 27632   9.4235  57.0007 0005753  16.4296 298.1865  1.00271991 44087
USA 167                 
1 27691U 03008A   26157.34720396  .00000013  00000+0  00000+0 0  9993
2 27691  10.9394  43.5041 0003866 316.3907 258.1291  1.00274349  6668
USA 169 (MILSTAR-2 4)   
1 27711U 03012A   26158.62373880 -.00000221  00000+0  00000+0 0  9997
2 27711  12.3346  29.9176 0101053   8.8424 233.9428  1.00270764 32855
ASIASAT 4               
1 27718U 03014A   26158.63128774 -.00000207  00000+0  00000+0 0  9991
2 27718   4.6810  75.8642 0002894   3.2591 191.7105  1.00272735 45203
HELLAS-SAT 2            
1 27811U 03020A   26158.08447609 -.00000071  00000+0  00000+0 0  9991
2 27811   7.3291  68.0049 0003214   6.2298 201.6634  1.00271644 42741
THURAYA-2               
1 27825U 03026A   26158.28170028  .00000136  00000+0  00000+0 0  9993
2 27825   8.8260  32.0226 0003149   4.4303   4.6399  1.00272850 84251
OPTUS C1                
1 27831U 03028B   26158.59029111 -.00000138  00000+0  00000+0 0  9995
2 27831   6.8649  69.5252 0005685   2.8502 191.8246  1.00270180 52968
USA 170                 
1 27875U 03040A   26158.67213623  .00000138  00000+0  00000+0 0  9998
2 27875  10.4794  48.0374 0002063  37.3400  76.9633  1.00277365 32909
GALAXY 13 (HORIZONS-1)  
1 27954U 03044A   26158.67237336  .00000147  00000+0  00000+0 0  9997
2 27954   1.3957  83.9733 0002086 347.6241 276.5139  1.00272947 46476
YAMAL 202               
1 28089U 03053A   26158.59441657 -.00000066  00000+0  00000+0 0  9992
2 28089   6.3202  71.0525 0003349 349.1584 213.3668  1.00272945 82600
UFO 11 (USA 174)        
1 28117U 03057A   26158.71699919 -.00000093  00000+0  00000+0 0  9998
2 28117   8.9338  33.8781 0002515  42.0982 153.8097  1.00274070 82352
USA 176 (DSP 22)        
1 28158U 04004A   26158.54912288 -.00000285  00000+0  00000+0 0  9997
2 28158  12.0487  26.1398 0001096 303.5056  72.0895  1.00408728 32843
ABS-4 (MOBISAT-1)       
1 28184U 04007A   26158.78541285  .00000054  00000+0  00000+0 0  9993
2 28184   6.0190  72.1205 0005149   2.3141 165.4485  1.00271168 52240
INTELSAT 10-02          
1 28358U 04022A   26158.77313043  .00000005  00000+0  00000+0 0  9997
2 28358   0.0052 326.5276 0000174 254.1379 312.8297  1.00279076 80461
ANIK F2                 
1 28378U 04027A   26158.62417102 -.00000035  00000+0  00000+0 0  9993
2 28378   3.2614  79.5743 0004369   2.3068 287.7198  1.00271881 41164
AMC-15                  
1 28446U 04041A   26158.68130007 -.00000073  00000+0  00000+0 0  9999
2 28446   0.0328 299.9419 0002314 135.1637 321.1970  1.00267803 79206
NSS-10                  
1 28526U 05003A   26158.39820868 -.00000238  00000+0  00000+0 0  9999
2 28526   6.4242  70.5719 0003038   4.8799 286.2618  1.00272036 53050
INMARSAT 4-F1           
1 28628U 05009A   26158.59982568  .00000046  00000+0  00000+0 0  9992
2 28628   5.1544  42.7371 0002762  36.1222 211.2047  1.00272546 77574
DIRECTV 8               
1 28659U 05019A   26158.60717163  .00000016  00000+0  00000+0 0  9993
2 28659   0.0176  10.0104 0002924  72.3447 273.1915  1.00271292 76977
GALAXY 28 (G-28)        
1 28702U 05022A   26158.76801706 -.00000185  00000+0  00000+0 0  9998
2 28702   3.2754  79.0455 0002818 352.8963  73.6032  1.00273000 51883
THAICOM 4               
1 28786U 05028A   26158.79702624 -.00000347  00000+0  00000+0 0  9998
2 28786   0.2201  86.0446 0001938 348.4889 228.1024  1.00270716 52157
ANIK F1R                
1 28868U 05036A   26158.68086671 -.00000061  00000+0  00000+0 0  9996
2 28868   4.2875  76.6976 0004348   3.9429 313.2783  1.00272662 46358
SYRACUSE 3A             
1 28885U 05041B   26158.78263949  .00000144  00000+0  00000+0 0  9998
2 28885   4.6198  75.9516 0003114 338.6850 169.9300  1.00270834 75652
INMARSAT 4-F2           
1 28899U 05044A   26158.58786443 -.00000247  00000+0  00000+0 0  9998
2 28899   5.0817  43.7093 0003059  32.5652 174.8352  1.00271640 75424
METEOSAT-9 (MSG-2)      
1 28912U 05049B   26158.78246617  .00000137  00000+0  00000+0 0  9992
2 28912   9.3393  54.2585 0001734 348.5772 180.7301  1.00268552  6905
EUTELSAT 174A           
1 28924U 05052A   26158.66491999  .00000023  00000+0  00000+0 0  9995
2 28924   4.1945  76.6438 0006418   0.5496 232.2371  1.00269750 52239
ECHOSTAR 10             
1 28935U 06003A   26158.68026006 -.00000041  00000+0  00000+0 0  9990
2 28935   0.0169 354.2320 0002112  50.7280 345.8429  1.00271438 74363
SPAINSAT                
1 28945U 06007A   26158.37348999 -.00000202  00000+0  00000+0 0  9998
2 28945   0.5368  86.7158 0004982 348.1198 285.2269  1.00272868 74115
JCSAT-5A                
1 29045U 06010A   26158.79953957 -.00000313  00000+0  00000+0 0  9999
2 29045   1.0842  84.3302 0002118  10.2050 221.5446  1.00270421 73671
ASTRA 1KR               
1 29055U 06012A   26158.77711711  .00000134  00000+0  00000+0 0  9990
2 29055   0.4485  83.2055 0003545 351.7636 119.9670  1.00272294 45600
