OBJECT_NAME,OBJECT_ID,EPOCH,MEAN_MOTION,ECCENTRICITY,INCLINATION,RA_OF_ASC_NODE,ARG_OF_PERICENTER,MEAN_ANOMALY,EPHEMERIS_TYPE,CLASSIFICATION_TYPE,NORAD_CAT_ID,ELEMENT_SET_NO,REV_AT_EPOCH,BSTAR,MEAN_MOTION_DOT,MEAN_MOTION_DDOT
GALAXY 3C (G-3C),2002-030A,2026-06-07T14:40:56.496000,1.00271611,.0001854,3.7053,78.1045,30.6428,272.6531,0,U,27445,999,4639,0,-.138E-5,0
INTELSAT 906 (IS-906),2002-041A,2026-06-07T18:51:59.573088,1.00271075,.0004684,5.7800,73.0355,357.5851,172.6949,0,U,27513,999,8693,0,.28E-6,0
NIMIQ 2,2002-062A,2026-06-07T14:59:08.274912,1.00271991,.0005753,9.4235,57.0007,16.4296,298.1865,0,U,27632,999,4408,0,-.57E-6,0
USA 167,2003-008A,2026-06-06T08:19:58.422144,1.00274349,.00038662,10.9394,43.5041,316.3907,258.1291,0,U,27691,999,666,0,.13E-6,0
USA 169 (MILSTAR-2 4),2003-012A,2026-06-07T14:58:11.032320,1.00270764,.0101053,12.3346,29.9176,8.8424,233.9428,0,U,27711,999,3285,0,-.221E-5,0
ASIASAT 4,2003-014A,2026-06-07T15:09:03.260736,1.00272735,.0002894,4.6810,75.8642,3.2591,191.7105,0,U,27718,999,4520,0,-.207E-5,0
HELLAS-SAT 2,2003-020A,2026-06-07T02:01:38.734176,1.00271644,.0003214,7.3291,68.0049,6.2298,201.6634,0,U,27811,999,4274,0,-.71E-6,0
THURAYA-2,2003-026A,2026-06-07T06:45:38.904192,1.00272850,.0003149,8.8260,32.0226,4.4303,4.6399,0,U,27825,999,8425,0,.136E-5,0
OPTUS C1,2003-028B,2026-06-07T14:10:01.151904,1.00270180,.0005685,6.8649,69.5252,2.8502,191.8246,0,U,27831,999,5296,0,-.138E-5,0
USA 170,2003-040A,2026-06-07T16:07:52.570272,1.00277365,.0002063,10.4794,48.0374,37.3400,76.9633,0,U,27875,999,3290,0,.138E-5,0
GALAXY 13 (HORIZONS-1),2003-044A,2026-06-07T16:08:13.058304,1.00272947,.0002086,1.3957,83.9733,347.6241,276.5139,0,U,27954,999,4647,0,.147E-5,0
YAMAL 202,2003-053A,2026-06-07T14:15:57.591648,1.00272945,.0003349,6.3202,71.0525,349.1584,213.3668,0,U,28089,999,8260,0,-.66E-6,0
UFO 11 (USA 174),2003-057A,2026-06-07T17:12:28.730016,1.00274070,.0002515,8.9338,33.8781,42.0982,153.8097,0,U,28117,999,8235,0,-.93E-6,0
USA 176 (DSP 22),2004-004A,2026-06-07T13:10:44.216832,1.00408728,.0001096,12.0487,26.1398,303.5056,72.0895,0,U,28158,999,3284,0,-.285E-5,0
ABS-4 (MOBISAT-1),2004-007A,2026-06-07T18:50:59.670240,1.00271168,.0005149,6.0190,72.1205,2.3141,165.4485,0,U,28184,999,5224,0,.54E-6,0
INTELSAT 10-02,2004-022A,2026-06-07T18:33:18.469152,1.00279076,.0000174,0.0052,326.5276,254.1379,312.8297,0,U,28358,999,8046,0,.5E-7,0
ANIK F2,2004-027A,2026-06-07T14:58:48.376128,1.00271881,.0004369,3.2614,79.5743,2.3068,287.7198,0,U,28378,999,4116,0,-.35E-6,0
AMC-15,2004-041A,2026-06-07T16:21:04.326048,1.00267803,.0002314,0.0328,299.9419,135.1637,321.1970,0,U,28446,999,7920,0,-.73E-6,0
NSS-10,2005-003A,2026-06-07T09:33:25.229952,1.00272036,.0003038,6.4242,70.5719,4.8799,286.2618,0,U,28526,999,5305,0,-.238E-5,0
INMARSAT 4-F1,2005-009A,2026-06-07T14:23:44.938752,1.00272546,.0002762,5.1544,42.7371,36.1222,211.2047,0,U,28628,999,7757,0,.46E-6,0
DIRECTV 8,2005-019A,2026-06-07T14:34:19.628832,1.00271292,.0002924,0.0176,10.0104,72.3447,273.1915,0,U,28659,999,7697,0,.16E-6,0
GALAXY 28 (G-28),2005-022A,2026-06-07T18:25:56.673984,1.00273000,.0002818,3.2754,79.0455,352.8963,73.6032,0,U,28702,999,5188,0,-.185E-5,0
THAICOM 4,2005-028A,2026-06-07T19:07:43.067136,1.00270716,.0001938,0.2201,86.0446,348.4889,228.1024,0,U,28786,999,5215,0,-.347E-5,0
ANIK F1R,2005-036A,2026-06-07T16:20:26.883744,1.00272662,.0004348,4.2875,76.6976,3.9429,313.2783,0,U,28868,999,4635,0,-.61E-6,0
SYRACUSE 3A,2005-041B,2026-06-07T18:47:00.051936,1.00270834,.0003114,4.6198,75.9516,338.6850,169.9300,0,U,28885,999,7565,0,.144E-5,0
INMARSAT 4-F2,2005-044A,2026-06-07T14:06:31.486752,1.00271640,.0003059,5.0817,43.7093,32.5652,174.8352,0,U,28899,999,7542,0,-.247E-5,0
METEOSAT-9 (MSG-2),2005-049B,2026-06-07T18:46:45.077088,1.00268552,.0001734,9.3393,54.2585,348.5772,180.7301,0,U,28912,999,690,0,.137E-5,0
EUTELSAT 174A,2005-052A,2026-06-07T15:57:29.087136,1.00269750,.0006418,4.1945,76.6438,0.5496,232.2371,0,U,28924,999,5223,0,.23E-6,0
ECHOSTAR 10,2006-003A,2026-06-07T16:19:34.469184,1.00271438,.0002112,0.0169,354.2320,50.7280,345.8429,0,U,28935,999,7436,0,-.41E-6,0
SPAINSAT,2006-007A,2026-06-07T08:57:49.535136,1.00272868,.0004982,0.5368,86.7158,348.1198,285.2269,0,U,28945,999,7411,0,-.202E-5,0
JCSAT-5A,2006-010A,2026-06-07T19:11:20.218848,1.00270421,.0002118,1.0842,84.3302,10.2050,221.5446,0,U,29045,999,7367,0,-.313E-5,0
ASTRA 1KR,2006-012A,2026-06-07T18:39:02.918304,1.00272294,.0003545,0.4485,83.2055,351.7636,119.9670,0,U,29055,999,4560,0,.134E-5,0
